Name	Departure	Latitude	Longitude	Arrival	City	State	NumIndividuals	Link
Brigham Young Pioneer Company (1847)	14 April 1847	41.5271113067865	-99.8106763511896	21 July 1847	Winter Quarters	Nebraska	148	http://lds.org/churchhistory/library/pioneercompany/1,15797,4017-1-1,00.html
Mormon Battalion Sick Detachments (1847)	24 May 1847	38.2638600468636	-104.612374976277	29 July 1847	Pueblo	Colorado	215	http://lds.org/churchhistory/library/pioneercompany/1,15797,4017-1-391,00.html
Edward Hunter - Joseph Horne Company (1847)	17 June 1847	41.5271113067865	-99.8106763511896	29 September 1847	Winter Quarters	Nebraska	197	http://lds.org/churchhistory/library/pioneercompany/1,15797,4017-1-163,00.html
Abraham O. Smoot - Samuel Russell Company (1847)	17 June 1847	41.5271113067865	-99.8106763511896	25 September 1847	Winter Quarters	Nebraska	95	http://lds.org/churchhistory/library/pioneercompany/1,15797,4017-1-343,00.html
Daniel Spencer/Ira Eldredge Company (1847)	17 June 1847	41.5271113067865	-99.8106763511896	19 September 1847	Winter Quarters	Nebraska	177	http://lds.org/churchhistory/library/pioneercompany/1,15797,4017-1-285,00.html
Daniel Spencer/Perrigrine Sessions Company (1847)	18 June 1847	41.5271113067865	-99.8106763511896	24 September 1847	Winter Quarters	Nebraska	185	http://lds.org/churchhistory/library/pioneercompany/1,15797,4017-1-344,00.html
Jedediah M. Grant  - Joseph B. Noble Company (1847)	19 June 1847	41.5271113067865	-99.8106763511896	02 October 1847	Winter Quarters	Nebraska	171	http://lds.org/churchhistory/library/pioneercompany/1,15797,4017-1-129,00.html
Jedediah M. Grant - Willard Snow Company (1847)	19 June 1847	41.5271113067865	-99.8106763511896	04 October 1847	Winter Quarters	Nebraska	160	http://lds.org/churchhistory/library/pioneercompany/1,15797,4017-1-340,00.html
Edward Hunter - Jacob Foutz Company (1847)	19 June 1847	41.5271113067865	-99.8106763511896	01 October 1847	Winter Quarters	Nebraska	155	http://lds.org/churchhistory/library/pioneercompany/1,15797,4017-1-342,00.html
Charles C. Rich Company (1847)	21 June 1847	41.5271113067865	-99.8106763511896	02 October 1847	Winter Quarters	Nebraska	126	http://lds.org/churchhistory/library/pioneercompany/1,15797,4017-1-250,00.html
Horace M. Alexander Company (1847)	24 July 1847	34.0534899383783	-118.245319873095	16 October 1847	Los Angeles	California	6	http://lds.org/churchhistory/library/pioneercompany/1,15797,4017-1-402,00.html
Abraham O. Smoot - George B. Wallace Company  (1847)	25 September 1847	41.5271113067865	-99.8106763511896	25 September 1847	Winter Quarters	Nebraska	223	http://lds.org/churchhistory/library/pioneercompany/1,15797,4017-1-276,00.html
Levi W. Hancock/Jefferson Hunt/James Pace/Andrew Lytle Company (1847)	11 October 1847	38.5723248124123	-121.471144929528	11 October 1847	Sutter's Fort	California	118	http://lds.org/churchhistory/library/pioneercompany/1,15797,4017-1-400,00.html
Henry G. Boyle Company (1848)	21 March 1848	32.7156852185726	-117.161724865437	05 June 1848	San Diego	California	6	http://lds.org/churchhistory/library/pioneercompany/1,15797,4017-1-396,00.html
Brigham Young Company (1848)	05 June 1848	41.5271113067865	-99.8106763511896	20 September 1848	Winter Quarters	Nebraska	1220	http://lds.org/churchhistory/library/pioneercompany/1,15797,4017-1-4,00.html
Heber C. Kimball Company (1848)	07 June 1848	41.5271113067865	-99.8106763511896	24 September 1848	Winter Quarters	Nebraska	662	http://lds.org/churchhistory/library/pioneercompany/1,15797,4017-1-179,00.html
Jonathan H. Holmes/Samuel Thompson Company (1848)	02 July 1848	38.7278151512146	-120.803584679961	06 September 1848	Placerville	California	48	http://lds.org/churchhistory/library/pioneercompany/1,15797,4017-1-398,00.html
Willard Richards Company (1848)	03 July 1848	41.5271113067865	-99.8106763511896	10 October 1848	Winter Quarters	Nebraska	526	http://lds.org/churchhistory/library/pioneercompany/1,15797,4017-1-2,00.html
Ebenezer Brown Company (1848)	12 August 1848	38.6816590279341	-120.663116052747	10 October 1848	Pleasant Valley	California	43	http://lds.org/churchhistory/library/pioneercompany/1,15797,4017-1-401,00.html
John W. Hess Company (1849)	15 April 1849	41.038586	-94.113028	27 July 1849	Mt. Pisgah	Iowa	6	http://lds.org/churchhistory/library/pioneercompany/1,15797,4017-1-461,00.html
Howard Egan  Company (1849)	18 April 1849	41.3364397734404	-95.5423195660114	07 August 1849	Pottawattamie County	Iowa	57	http://lds.org/churchhistory/library/pioneercompany/1,15797,4017-1-106,00.html
Silas Richards Company (1849)	10 July 1849	41.2577618658543	-95.8512450009584	25 October 1849	Kanesville	Iowa	246	http://lds.org/churchhistory/library/pioneercompany/1,15797,4017-1-5,00.html
George A. Smith/Dan Jones Company (1849)	14 July 1849	41.2577618658543	-95.8512450009584	26 October 1849	Kanesville	Iowa	447	http://lds.org/churchhistory/library/pioneercompany/1,15797,4017-1-270,00.html
Ezra T. Benson Company (1849)	15 July 1849	41.2577618658543	-95.8512450009584	25 October 1849	Kanesville	Iowa	205	http://lds.org/churchhistory/library/pioneercompany/1,15797,4017-1-65,00.html
Thomas Rhoades Company (1849)	20 September 1849	38.5790598392487	-121.490999981761	20 September 1849	Sacramento	California	50	http://lds.org/churchhistory/library/pioneercompany/1,15797,4017-1-403,00.html
Milo Andrus Company (1850)	03 June 1850	41.2577618658543	-95.8512450009584	30 August 1850	Kanesville	Iowa	206	http://lds.org/churchhistory/library/pioneercompany/1,15797,4017-1-51,00.html
Benjamin Hawkins Company (1850)	05 June 1850	41.2577618658543	-95.8512450009584	09 September 1850	Kanesville	Iowa	137	http://lds.org/churchhistory/library/pioneercompany/1,15797,4017-1-145,00.html
Thomas S. Williams/Seth M. Blair Freight Train (1850)	06 June 1850	41.2577618658543	-95.8512450009584	07 September 1850	Council Bluffs	Iowa	6	http://lds.org/churchhistory/library/pioneercompany/1,15797,4017-1-372,00.html
Aaron Johnson Company (1850)	08 June 1850	41.2577618658543	-95.8512450009584	12 September 1850	Kanesville	Iowa	240	http://lds.org/churchhistory/library/pioneercompany/1,15797,4017-1-170,00.html
James Pace Company (1850)	11 June 1850	41.2577618658543	-95.8512450009584	20 September 1850	Kanesville	Iowa	230	http://lds.org/churchhistory/library/pioneercompany/1,15797,4017-1-230,00.html
Wilford Woodruff Company (1850)	14 June 1850	41.2577618658543	-95.8512450009584	14 October 1850	Kanesville	Iowa	209	http://lds.org/churchhistory/library/pioneercompany/1,15797,4017-1-325,00.html
David Evans Company (1850)	15 June 1850	41.2577618658543	-95.8512450009584	13 September 1850	Kanesville	Iowa	105	http://lds.org/churchhistory/library/pioneercompany/1,15797,4017-1-114,00.html
Stephen Markham Company (1850)	20 June 1850	41.2577618658543	-95.8512450009584	01 October 1850	Kanesville	Iowa	57	http://lds.org/churchhistory/library/pioneercompany/1,15797,4017-1-191,00.html
William Snow/Joseph Young Company (1850)	21 June 1850	41.2577618658543	-95.8512450009584	01 October 1850	Kanesville	Iowa	473	http://lds.org/churchhistory/library/pioneercompany/1,15797,4017-1-283,00.html
Edward Hunter Company (1850)	29 June 1850	41.2577618658543	-95.8512450009584	13 October 1850	Kanesville	Iowa	261	http://lds.org/churchhistory/library/pioneercompany/1,15797,4017-1-164,00.html
Orson Hyde Company (1850)	05 July 1850	41.2577618658543	-95.8512450009584	15 August 1850	Kanesville	Iowa	4	http://lds.org/churchhistory/library/pioneercompany/1,15797,4017-1-407,00.html
Amasa M. Lyman Company (1850)	17 August 1850	38.5790598392487	-121.490999981761	29 September 1850	Sacramento	California	20	http://lds.org/churchhistory/library/pioneercompany/1,15797,4017-1-408,00.html
John Sharp Company (1850)	28 August 1850	38.6277399212122	-90.1995147764683	28 August 1850	St. Louis	Missouri	20	http://lds.org/churchhistory/library/pioneercompany/1,15797,4017-1-383,00.html
Warren Foote Company (1850)	17 September 1850	41.2577618658543	-95.8512450009584	17 September 1850	Kanesville	Iowa	540	http://lds.org/churchhistory/library/pioneercompany/1,15797,4017-1-117,00.html
Charles C. Rich Company (1850)	05 October 1850	34.14096	-117.99974	12 November 1850	Sierra Mountains	California	6	http://lds.org/churchhistory/library/pioneercompany/1,15797,4017-1-448,00.html
David Lewis Company (1851)	01 May 1851	41.2577618658543	-95.8512450009584	09 September 1851	Kanesville	Iowa	52	http://lds.org/churchhistory/library/pioneercompany/1,15797,4017-1-185,00.html
Harry Walton/Garden Grove Company (1851)	17 May 1851	41.2577618658543	-95.8512450009584	24 September 1851	Council Bluffs	Iowa	214	http://lds.org/churchhistory/library/pioneercompany/1,15797,4017-1-313,00.html
William McPherson Company (1851)	27 June 1851	38.6617060750723	-96.4879457652569	05 September 1851	Council Grove	Kansas	30	http://lds.org/churchhistory/library/pioneercompany/1,15797,4017-1-386,00.html
John Easton Company (1851)	01 July 1851	38.6277399212122	-90.1995147764683	15 September 1851	St. Louis	Missouri	50	http://lds.org/churchhistory/library/pioneercompany/1,15797,4017-1-439,00.html
John Brown Company   (1851)	07 July 1851	41.2577618658543	-95.8512450009584	28 September 1851	Kanesville	Iowa	235	http://lds.org/churchhistory/library/pioneercompany/1,15797,4017-1-75,00.html
Thomas S. Williams Freight Train (1851)	03 August 1851	41.2577618658543	-95.8512450009584	25 August 1851	Kanesville	Iowa	10	http://lds.org/churchhistory/library/pioneercompany/1,15797,4017-1-322,00.html
John G. Smith Company (1851)	15 September 1851	41.2577618658543	-95.8512450009584	15 September 1851	Kanesville	Iowa	112	http://lds.org/churchhistory/library/pioneercompany/1,15797,4017-1-274,00.html
Easton Kelsey Company (1851)	22 September 1851	41.2577618658543	-95.8512450009584	22 September 1851	Kanesville	Iowa	145	http://lds.org/churchhistory/library/pioneercompany/1,15797,4017-1-175,00.html
Morris Phelps Company (1851)	26 September 1851	41.2577618658543	-95.8512450009584	26 September 1851	Kanesville	Iowa	76	http://lds.org/churchhistory/library/pioneercompany/1,15797,4017-1-235,00.html
James W. Cummings Company  (1851)	30 September 1851	41.2577618658543	-95.8512450009584	30 September 1851	Kanesville	Iowa	150	http://lds.org/churchhistory/library/pioneercompany/1,15797,4017-1-97,00.html
John S. Higbee/James W. Bay Company                                     (1852)	28 May 1852	41.2577618658543	-95.8512450009584	13 August 1852	Kanesville	Iowa	190	http://lds.org/churchhistory/library/pioneercompany/1,15797,4017-1-146,00.html
James Jepson Company (1852)	29 May 1852	41.2577618658543	-95.8512450009584	10 September 1852	Kanesville	Iowa	220	http://lds.org/churchhistory/library/pioneercompany/1,15797,4017-1-9,00.html
Abraham O. Smoot Company (1852)	01 June 1852	39.10296	-94.583063	03 September 1852	Kansas City	Missouri	250	http://lds.org/churchhistory/library/pioneercompany/1,15797,4017-1-12,00.html
Thomas Marsden Company (1852)	04 June 1852	39.093245	-94.41563	02 September 1852	Independence	Missouri	18	http://lds.org/churchhistory/library/pioneercompany/1,15797,4017-1-10,00.html
John Tidwell Company (1852)	04 June 1852	41.2577618658543	-95.8512450009584	10 September 1852	Kanesville	Iowa	340	http://lds.org/churchhistory/library/pioneercompany/1,15797,4017-1-14,00.html
Joseph Outhouse Company (1852)	10 June 1852	41.2577618658543	-95.8512450009584	06 September 1852	Kanesville	Iowa	50	http://lds.org/churchhistory/library/pioneercompany/1,15797,4017-1-229,00.html
Henry Bryant Manning Jolley Company (1852)	15 June 1852	41.2577618658543	-95.8512450009584	09 September 1852	Kanesville	Iowa	340	http://lds.org/churchhistory/library/pioneercompany/1,15797,4017-1-172,00.html
William Morgan Company (1852)	22 June 1852	41.2577618658543	-95.8512450009584	25 September 1852	Council Bluffs	Iowa	96	http://lds.org/churchhistory/library/pioneercompany/1,15797,4017-1-212,00.html
William West Lane Company (1852)	24 June 1852	42.1809547394514	-94.6964145451784	24 September 1852	Lanesborough	Iowa	37	http://lds.org/churchhistory/library/pioneercompany/1,15797,4017-1-382,00.html
James McGaw Company (1852)	24 June 1852	41.2577618658543	-95.8512450009584	20 September 1852	Kanesville	Iowa	239	http://lds.org/churchhistory/library/pioneercompany/1,15797,4017-1-201,00.html
John B. Walker Company (1852)	26 June 1852	41.2577618658543	-95.8512450009584	02 October 1852	Kanesville	Iowa	258	http://lds.org/churchhistory/library/pioneercompany/1,15797,4017-1-309,00.html
Philip De La Mare Company (1852)	04 July 1852	39.3292844295502	-94.9211970716715	10 November 1852	Fort Leavenworth	Kansas	81	http://lds.org/churchhistory/library/pioneercompany/1,15797,4017-1-6,00.html
Eli B. Kelsey Company (1852)	04 July 1852	41.2577618658543	-95.8512450009584	14 October 1852	Kanesville	Iowa	100	http://lds.org/churchhistory/library/pioneercompany/1,15797,4017-1-176,00.html
James C. Snow Company (1852)	05 July 1852	41.2577618658543	-95.8512450009584	09 October 1852	Kanesville	Iowa	250	http://lds.org/churchhistory/library/pioneercompany/1,15797,4017-1-279,00.html
Robert Wimmer Company (1852)	10 July 1852	41.2577618658543	-95.8512450009584	15 September 1852	Kanesville	Iowa	230	http://lds.org/churchhistory/library/pioneercompany/1,15797,4017-1-323,00.html
Allen Weeks Company (1852)	13 July 1852	41.2577618658543	-95.8512450009584	12 October 1852	Kanesville	Iowa	226	http://lds.org/churchhistory/library/pioneercompany/1,15797,4017-1-15,00.html
Isaac M. Stewart Company (1852)	28 August 1852	41.2577618658543	-95.8512450009584	28 August 1852	Kanesville	Iowa	245	http://lds.org/churchhistory/library/pioneercompany/1,15797,4017-1-292,00.html
Thomas C.D. Howell Company (1852)	02 September 1852	41.2577618658543	-95.8512450009584	02 September 1852	Kanesville	Iowa	293	http://lds.org/churchhistory/library/pioneercompany/1,15797,4017-1-161,00.html
Henry W. Miller Company (1852)	10 September 1852	41.2577618658543	-95.8512450009584	10 September 1852	Kanesville	Iowa	229	http://lds.org/churchhistory/library/pioneercompany/1,15797,4017-1-206,00.html
Parley P. Pratt Company (1852)	14 September 1852	34.1052451729774	-117.294124737382	18 October 1852	San Bernardino	California	15	http://lds.org/churchhistory/library/pioneercompany/1,15797,4017-1-462,00.html
Harmon Cutler Company   (1852)	20 September 1852	41.2577618658543	-95.8512450009584	20 September 1852	Kanesville	Iowa	262	http://lds.org/churchhistory/library/pioneercompany/1,15797,4017-1-99,00.html
David Wood Company (1852)	20 September 1852	41.2577618658543	-95.8512450009584	20 September 1852	Kanesville	Iowa	288	http://lds.org/churchhistory/library/pioneercompany/1,15797,4017-1-324,00.html
Isaac Bullock Company   (1852)	21 September 1852	41.2577618658543	-95.8512450009584	21 September 1852	Kanesville	Iowa	175	http://lds.org/churchhistory/library/pioneercompany/1,15797,4017-1-78,00.html
Benjamin Gardner Company   (1852)	24 September 1852	41.2577618658543	-95.8512450009584	24 September 1852	Kanesville	Iowa	241	http://lds.org/churchhistory/library/pioneercompany/1,15797,4017-1-121,00.html
Uriah Curtis Company   (1852)	29 September 1852	41.2577618658543	-95.8512450009584	29 September 1852	Kanesville	Iowa	365	http://lds.org/churchhistory/library/pioneercompany/1,15797,4017-1-98,00.html
Amasa M. Lyman/Charles C. Rich Company (1852)	16 November 1852	34.1052451729774	-117.294124737382	19 December 1852	San Bernardino	California	20	http://lds.org/churchhistory/library/pioneercompany/1,15797,4017-1-406,00.html
Anthony Ivins Company (1853)	05 April 1853	39.9528799206018	-74.1937697678804	11 August 1853	Toms River	New Jersey	16	http://lds.org/churchhistory/library/pioneercompany/1,15797,4017-1-388,00.html
Alexander Williams Company (1853)	10 April 1853	34.1052451729774	-117.294124737382	01 May 1853	San Bernardino	California	7	http://lds.org/churchhistory/library/pioneercompany/1,15797,4017-1-411,00.html
Thomas Burdick Company (1853)	09 May 1853	41.2577618658543	-95.8512450009584	19 June 1853	Kanesville	Iowa	8	http://lds.org/churchhistory/library/pioneercompany/1,15797,4017-1-381,00.html
Moses Clawson Company   (1853)	16 May 1853	40.3969598561525	-91.3845650106668	15 September 1853	Keokuk	Iowa	295	http://lds.org/churchhistory/library/pioneercompany/1,15797,4017-1-92,00.html
William Atkinson Company   (1853)	18 May 1853	41.2577618658543	-95.8512450009584	10 September 1853	Kanesville	Iowa	79	http://lds.org/churchhistory/library/pioneercompany/1,15797,4017-1-56,00.html
John E. Forsgren Company   (1853)	21 May 1853	40.3969598561525	-91.3845650106668	29 September 1853	Keokuk	Iowa	294	http://lds.org/churchhistory/library/pioneercompany/1,15797,4017-1-119,00.html
Cyrus H. Wheelock Company (1853)	01 June 1853	40.3969598561525	-91.3845650106668	06 October 1853	Keokuk	Iowa	400	http://lds.org/churchhistory/library/pioneercompany/1,15797,4017-1-315,00.html
David Wilkin Company  (1853)	01 June 1853	41.5271113067865	-99.8106763511896	09 September 1853	Six-Mile Grove	Nebraska	122	http://lds.org/churchhistory/library/pioneercompany/1,15797,4017-1-318,00.html
Joseph  W.  Young Company (1853)	01 June 1853	40.3969598561525	-91.3845650106668	10 October 1853	Keokuk	Iowa	402	http://lds.org/churchhistory/library/pioneercompany/1,15797,4017-1-333,00.html
Jacob Gates Company   (1853)	03 June 1853	40.3969598561525	-91.3845650106668	26 September 1853	Keokuk	Iowa	262	http://lds.org/churchhistory/library/pioneercompany/1,15797,4017-1-124,00.html
Claudius V. Spencer Company (1853)	03 June 1853	40.3969598561525	-91.3845650106668	17 September 1853	Keokuk	Iowa	250	http://lds.org/churchhistory/library/pioneercompany/1,15797,4017-1-284,00.html
Daniel A. Miller/John W. Cooley Company (1853)	08 June 1853	42.0746306329966	-93.5000527650118	09 September 1853	Six-Mile Grove	Iowa	282	http://lds.org/churchhistory/library/pioneercompany/1,15797,4017-1-205,00.html
Appleton M. Harmon Company  (1853)	15 June 1853	40.3969598561525	-91.3845650106668	16 October 1853	Keokuk	Iowa	200	http://lds.org/churchhistory/library/pioneercompany/1,15797,4017-1-142,00.html
Atchison-Pilling Company (1853)	01 July 1853	41.2577618658543	-95.8512450009584	13 September 1853	Kanesville	Iowa	13	http://lds.org/churchhistory/library/pioneercompany/1,15797,4017-1-490,00.html
John Brown Company   (1853)	01 July 1853	40.3969598561525	-91.3845650106668	13 October 1853	Keokuk	Iowa	303	http://lds.org/churchhistory/library/pioneercompany/1,15797,4017-1-76,00.html
Moses Daley Freight Train   (1853)	06 July 1853	42.2011853009462	-104.547340124846	27 September 1853	Fort Laramie	Wyoming	75	http://lds.org/churchhistory/library/pioneercompany/1,15797,4017-1-100,00.html
Vincent Shurtleff Freight Train (1853)	13 July 1853	41.2577618658543	-95.8512450009584	22 September 1853	Council Bluffs	Iowa	12	http://lds.org/churchhistory/library/pioneercompany/1,15797,4017-1-269,00.html
Benjamin Thomas Mitchell Company (1854)	01 June 1854	41.2577618658543	-95.8512450009584	05 August 1854	Council Bluffs	Iowa	15	http://lds.org/churchhistory/library/pioneercompany/1,15797,4017-1-209,00.html
Hans Peter Olsen Company (1854)	15 June 1854	39.055358	-94.580396	05 October 1854	Westport	Missouri	550	http://lds.org/churchhistory/library/pioneercompany/1,15797,4017-1-227,00.html
Job Smith  Company (1854)	16 June 1854	39.055358	-94.580396	23 September 1854	Westport	Missouri	217	http://lds.org/churchhistory/library/pioneercompany/1,15797,4017-1-271,00.html
Darwin Richardson Company (1854)	17 June 1854	39.055358	-94.580396	30 September 1854	Westport	Missouri	300	http://lds.org/churchhistory/library/pioneercompany/1,15797,4017-1-251,00.html
Orson Pratt/Ezra T. Benson/Ira Eldredge Company (1854)	21 June 1854	39.10296	-94.583063	03 October 1854	Kansas City	Missouri	24	http://lds.org/churchhistory/library/pioneercompany/1,15797,4017-1-240,00.html
Daniel Garn Company   (1854)	01 July 1854	39.055358	-94.580396	01 October 1854	Westport	Missouri	477	http://lds.org/churchhistory/library/pioneercompany/1,15797,4017-1-123,00.html
William Empey Company   (1854)	15 July 1854	39.055358	-94.580396	24 October 1854	Westport	Missouri	60	http://lds.org/churchhistory/library/pioneercompany/1,15797,4017-1-112,00.html
Robert L. Campbell Company  (1854)	18 July 1854	39.055358	-94.580396	28 October 1854	Westport	Missouri	397	http://lds.org/churchhistory/library/pioneercompany/1,15797,4017-1-81,00.html
James Brown Company   (1854)	27 September 1854	39.055358	-94.580396	27 September 1854	Westport	Missouri	300	http://lds.org/churchhistory/library/pioneercompany/1,15797,4017-1-72,00.html
Thomas S. Williams Freight Train (1854)	23 October 1854	39.10296	-94.583063	23 October 1854	Kansas City	Missouri	68	http://lds.org/churchhistory/library/pioneercompany/1,15797,4017-1-373,00.html
William McBride Company (1855)	23 April 1855	37.3555064946413	-121.954249665141	21 July 1855	Santa Clara	California	24	http://lds.org/churchhistory/library/pioneercompany/1,15797,4017-1-393,00.html
John Hindley Company  (1855)	07 June 1855	38.4847104549408	-98.3802033215761	03 September 1855	Mormon Grove	Kansas	206	http://lds.org/churchhistory/library/pioneercompany/1,15797,4017-1-147,00.html
Jacob F. Secrist/Noah T. Guymon Company (1855)	13 June 1855	38.4847104549408	-98.3802033215761	07 September 1855	Mormon Grove	Kansas	368	http://lds.org/churchhistory/library/pioneercompany/1,15797,4017-1-263,00.html
Seth M. Blair/Edward Stevenson Company   (1855)	15 June 1855	38.4847104549408	-98.3802033215761	10 September 1855	Mormon Grove	Kansas	89	http://lds.org/churchhistory/library/pioneercompany/1,15797,4017-1-69,00.html
Parley P. Pratt Company (1855)	20 June 1855	37.7791600674391	-122.420049458742	18 August 1855	San Francisco	California	18	http://lds.org/churchhistory/library/pioneercompany/1,15797,4017-1-405,00.html
Richard Ballantyne Company  (1855)	01 July 1855	38.4847104549408	-98.3802033215761	25 September 1855	Mormon Grove	Kansas	402	http://lds.org/churchhistory/library/pioneercompany/1,15797,4017-1-59,00.html
Moses Thurston Company  (1855)	04 July 1855	38.4847104549408	-98.3802033215761	19 September 1855	Mormon Grove	Kansas	148	http://lds.org/churchhistory/library/pioneercompany/1,15797,4017-1-305,00.html
Charles A. Harper Company   (1855)	25 July 1855	38.4847104549408	-98.3802033215761	28 October 1855	Mormon Grove	Kansas	305	http://lds.org/churchhistory/library/pioneercompany/1,15797,4017-1-143,00.html
Milo Andrus Company   (1855)	04 August 1855	38.4847104549408	-98.3802033215761	24 October 1855	Mormon Grove	Kansas	461	http://lds.org/churchhistory/library/pioneercompany/1,15797,4017-1-52,00.html
Judson L. Stoddard Company (1855)	01 September 1855	38.5790598392487	-121.490999981761	03 October 1855	Sacramento	California	9	http://lds.org/churchhistory/library/pioneercompany/1,15797,4017-1-455,00.html
T. D. Pitt Company (1855)	22 September 1855	39.004215	-119.847695	04 October 1855	Carson Valley	Nevada	5	http://lds.org/churchhistory/library/pioneercompany/1,15797,4017-1-481,00.html
Amasa M. Lyman Company (1855)	25 October 1855	34.1052451729774	-117.294124737382	01 December 1855	San Bernardino	California	12	http://lds.org/churchhistory/library/pioneercompany/1,15797,4017-1-437,00.html
Isaac Allred Freight Train  (1855)	02 November 1855	38.4847104549408	-98.3802033215761	02 November 1855	Mormon Grove	Kansas	61	http://lds.org/churchhistory/library/pioneercompany/1,15797,4017-1-49,00.html
Philemon C. Merrill Company (1856)	05 June 1856	41.360796	-95.951943	13 August 1856	Florence	Nebraska	200	http://lds.org/churchhistory/library/pioneercompany/1,15797,4017-1-204,00.html
Edmund Ellsworth Company   (1856)	09 June 1856	41.6578254103661	-91.5265350043774	26 September 1856	Iowa City	Iowa	280	http://lds.org/churchhistory/library/pioneercompany/1,15797,4017-1-111,00.html
Daniel D. McArthur Company (1856)	11 June 1856	41.6578254103661	-91.5265350043774	26 September 1856	Iowa City	Iowa	220	http://lds.org/churchhistory/library/pioneercompany/1,15797,4017-1-195,00.html
Edward Bunker Company   (1856)	23 June 1856	41.6578254103661	-91.5265350043774	02 October 1856	Iowa City	Iowa	290	http://lds.org/churchhistory/library/pioneercompany/1,15797,4017-1-80,00.html
Canute Peterson Company (1856)	27 June 1856	41.360796	-95.951943	16 September 1856	Florence	Nebraska	320	http://lds.org/churchhistory/library/pioneercompany/1,15797,4017-1-234,00.html
James G. Willie Company (1856)	15 July 1856	41.6578254103661	-91.5265350043774	09 November 1856	Iowa City	Iowa	500	http://lds.org/churchhistory/library/pioneercompany/1,15797,4017-1-319,00.html
Edward Martin Company (1856)	28 July 1856	41.6578254103661	-91.5265350043774	30 November 1856	Iowa City	Iowa	575	http://lds.org/churchhistory/library/pioneercompany/1,15797,4017-1-192,00.html
William B. Hodgetts Company  (1856)	30 July 1856	41.6578254103661	-91.5265350043774	10 December 1856	Iowa City	Iowa	150	http://lds.org/churchhistory/library/pioneercompany/1,15797,4017-1-148,00.html
Dan Jones/John A. Hunt Company (1856)	01 August 1856	41.6578254103661	-91.5265350043774	10 December 1856	Iowa City	Iowa	300	http://lds.org/churchhistory/library/pioneercompany/1,15797,4017-1-174,00.html
Abraham O. Smoot Company  (1856)	10 August 1856	39.560865	-95.1284	09 November 1856	Atchison	Kansas	97	http://lds.org/churchhistory/library/pioneercompany/1,15797,4017-1-277,00.html
John C. Naegle Company (1856)	25 August 1856	37.338475137949	-121.885794997215	15 October 1856	San Jose	California	9	http://lds.org/churchhistory/library/pioneercompany/1,15797,4017-1-452,00.html
John Banks Company    (1856)	22 September 1856	41.360796	-95.951943	22 September 1856	Florence	Nebraska	300	http://lds.org/churchhistory/library/pioneercompany/1,15797,4017-1-60,00.html
Amasa M. Lyman/Charles C. Rich Company (1857)	18 April 1857	34.104246	-117.308798	03 June 1857	San Bernadino	California	64	http://lds.org/churchhistory/library/pioneercompany/1,15797,4017-1-422,00.html
Israel Evans Company   (1857)	22 May 1857	41.6578254103661	-91.5265350043774	11 September 1857	Iowa City	Iowa	149	http://lds.org/churchhistory/library/pioneercompany/1,15797,4017-1-115,00.html
Ephraim K. Hanks Mail Express (1857)	01 June 1857	39.093245	-94.41563	23 June 1857	Independence	Missouri	9	http://lds.org/churchhistory/library/pioneercompany/1,15797,4017-1-413,00.html
Jesse B. Martin Company (1857)	01 June 1857	41.6578254103661	-91.5265350043774	12 September 1857	Iowa City	Iowa	192	http://lds.org/churchhistory/library/pioneercompany/1,15797,4017-1-193,00.html
William G. Young Company (1857)	01 June 1857	41.6578254103661	-91.5265350043774	25 September 1857	Iowa City	Iowa	55	http://lds.org/churchhistory/library/pioneercompany/1,15797,4017-1-339,00.html
Jacob Hofheins/Matthew McCune Company   (1857)	06 June 1857	41.6578254103661	-91.5265350043774	21 September 1857	Iowa City	Iowa	204	http://lds.org/churchhistory/library/pioneercompany/1,15797,4017-1-149,00.html
Christian Christiansen Company   (1857)	15 June 1857	41.6578254103661	-91.5265350043774	13 September 1857	Iowa City	Iowa	330	http://lds.org/churchhistory/library/pioneercompany/1,15797,4017-1-88,00.html
Matthias Cowley Company   (1857)	15 June 1857	41.6578254103661	-91.5265350043774	13 September 1857	Iowa City	Iowa	198	http://lds.org/churchhistory/library/pioneercompany/1,15797,4017-1-94,00.html
Hezekiah Thatcher Company (1857)	06 July 1857	37.9479548335075	-122.063380032778	16 August 1857	Pleasant Hill	California	13	http://lds.org/churchhistory/library/pioneercompany/1,15797,4017-1-442,00.html
William Holmes Walker Freight Train (1857)	14 July 1857	41.360796	-95.951943	04 September 1857	Florence	Nebraska	86	http://lds.org/churchhistory/library/pioneercompany/1,15797,4017-1-310,00.html
Perrigrine Sessions Company (1857)	16 July 1857	39.004215	-119.847695	12 August 1857	Carson Valley	Nevada	65	http://lds.org/churchhistory/library/pioneercompany/1,15797,4017-1-453,00.html
Homer Duncan Company (1857)	14 September 1857	32.3484398424625	-96.7945095151663	14 September 1857	Ellis County	Texas	0	http://lds.org/churchhistory/library/pioneercompany/1,15797,4017-1-46,00.html
Chester Loveland Company (1857)	26 September 1857	39.004215	-119.847695	01 November 1857	Carson Valley	Nevada	53	http://lds.org/churchhistory/library/pioneercompany/1,15797,4017-1-449,00.html
Freeman Tanner Company (1858)	16 November 1857	34.1052451729774	-117.294124737382	19 January 1858	San Bernardino	California	6	http://lds.org/churchhistory/library/pioneercompany/1,15797,4017-1-397,00.html
Robert Crow Company (1857)	20 November 1857	34.1052451729774	-117.294124737382	25 December 1857	San Bernardino	California	26	http://lds.org/churchhistory/library/pioneercompany/1,15797,4017-1-395,00.html
Joseph Lazarus Matthews Company (1857)	30 November 1857	34.1052451729774	-117.294124737382	01 February 1858	San Bernardino	California	12	http://lds.org/churchhistory/library/pioneercompany/1,15797,4017-1-468,00.html
Orson Pratt/Ezra T. Benson Company (1858)	15 December 1857	37.7791600674391	-122.420049458742	19 January 1858	San Francisco	California	9	http://lds.org/churchhistory/library/pioneercompany/1,15797,4017-1-436,00.html
Eli Whipple Company (1858)	17 March 1858	37.4841633439064	-122.227077931166	11 June 1858	Redwood City	California	37	http://lds.org/churchhistory/library/pioneercompany/1,15797,4017-1-399,00.html
Horace S. Eldredge Company  (1858)	08 May 1858	41.6578254103661	-91.5265350043774	09 July 1858	Iowa City	Iowa	39	http://lds.org/churchhistory/library/pioneercompany/1,15797,4017-1-107,00.html
Iver N. Iversen Company  (1858)	19 May 1858	41.6578254103661	-91.5265350043774	20 September 1858	Iowa City	Iowa	50	http://lds.org/churchhistory/library/pioneercompany/1,15797,4017-1-168,00.html
Russell K. Homer Company (1858)	19 June 1858	41.6578254103661	-91.5265350043774	07 October 1858	Iowa City	Iowa	60	http://lds.org/churchhistory/library/pioneercompany/1,15797,4017-1-154,00.html
Charles McCarty/William Appleby Company   (1858)	09 August 1858	41.360796	-95.951943	17 October 1858	Florence	Nebraska	23	http://lds.org/churchhistory/library/pioneercompany/1,15797,4017-1-199,00.html
Frederick A. Mitchell Company (1858)	08 September 1858	38.5790598392487	-121.490999981761	26 October 1858	Sacramento	California	25	http://lds.org/churchhistory/library/pioneercompany/1,15797,4017-1-451,00.html
William Huntington Freight Train (1858)	27 October 1858	34.1052451729774	-117.294124737382	09 December 1858	San Bernardino	California	3	http://lds.org/churchhistory/library/pioneercompany/1,15797,4017-1-450,00.html
A. S. Beckwith Company   (1859)	01 May 1859	41.448529958725	-97.7299594134092	01 August 1859	Genoa	Nebraska	22	http://lds.org/churchhistory/library/pioneercompany/1,15797,4017-1-64,00.html
Horton D. Haight/Frederick Kesler Freight Train  (1859)	06 June 1859	41.360796	-95.951943	01 September 1859	Florence	Nebraska	154	http://lds.org/churchhistory/library/pioneercompany/1,15797,4017-1-133,00.html
George Rowley Company (1859)	07 June 1859	41.360796	-95.951943	04 September 1859	Florence	Nebraska	235	http://lds.org/churchhistory/library/pioneercompany/1,15797,4017-1-17,00.html
Louis R. Chaffin Company (1859)	10 June 1859	38.7278151512146	-120.803584679961	16 July 1859	Placerville	California	3	http://lds.org/churchhistory/library/pioneercompany/1,15797,4017-1-457,00.html
James S. Brown Company   (1859)	13 June 1859	41.360796	-95.951943	29 August 1859	Florence	Nebraska	353	http://lds.org/churchhistory/library/pioneercompany/1,15797,4017-1-73,00.html
Robert F. Neslen Company (1859)	23 June 1859	41.360796	-95.951943	15 September 1859	Florence	Nebraska	380	http://lds.org/churchhistory/library/pioneercompany/1,15797,4017-1-224,00.html
Edward Stevenson Company (1859)	15 September 1859	41.360796	-95.951943	15 September 1859	Florence	Nebraska	285	http://lds.org/churchhistory/library/pioneercompany/1,15797,4017-1-291,00.html
John Taylor Company (1860)	24 May 1860	41.360796	-95.951943	17 September 1860	Florence	Nebraska	123	http://lds.org/churchhistory/library/pioneercompany/1,15797,4017-1-299,00.html
Warren Walling Company (1860)	30 May 1860	41.360796	-95.951943	09 August 1860	Florence	Nebraska	172	http://lds.org/churchhistory/library/pioneercompany/1,15797,4017-1-312,00.html
Daniel Robison Company (1860)	06 June 1860	41.360796	-95.951943	27 August 1860	Florence	Nebraska	233	http://lds.org/churchhistory/library/pioneercompany/1,15797,4017-1-255,00.html
Kimball and Lawrence Freight Train (1860)	11 June 1860	41.26067	-95.940074	27 August 1860	Omaha	Nebraska	1	http://lds.org/churchhistory/library/pioneercompany/1,15797,4017-1-483,00.html
James D. Ross Company (1860)	14 June 1860	41.360796	-95.951943	03 September 1860	Florence	Nebraska	249	http://lds.org/churchhistory/library/pioneercompany/1,15797,4017-1-256,00.html
Jesse Murphy Company  (1860)	19 June 1860	41.360796	-95.951943	30 August 1860	Florence	Nebraska	279	http://lds.org/churchhistory/library/pioneercompany/1,15797,4017-1-220,00.html
John Smith Company  (1860)	22 June 1860	41.360796	-95.951943	01 September 1860	Florence	Nebraska	359	http://lds.org/churchhistory/library/pioneercompany/1,15797,4017-1-272,00.html
Oscar O. Stoddard Company (1860)	06 July 1860	41.360796	-95.951943	24 September 1860	Florence	Nebraska	126	http://lds.org/churchhistory/library/pioneercompany/1,15797,4017-1-295,00.html
William Budge Company   (1860)	20 July 1860	41.360796	-95.951943	05 October 1860	Florence	Nebraska	400	http://lds.org/churchhistory/library/pioneercompany/1,15797,4017-1-79,00.html
Joseph W. Young Freight Train (1860)	23 July 1860	41.360796	-95.951943	03 October 1860	Florence	Nebraska	100	http://lds.org/churchhistory/library/pioneercompany/1,15797,4017-1-334,00.html
Franklin Brown Company (1860)	27 August 1860	41.360796	-95.951943	27 August 1860	Florence	Nebraska	60	http://lds.org/churchhistory/library/pioneercompany/1,15797,4017-1-71,00.html
Hooper and Eldredge Freight Train   (1860)	13 September 1860	43.78237	11.254995	13 September 1860	Florence	there	0	http://lds.org/churchhistory/library/pioneercompany/1,15797,4017-1-130,00.html
Elisha Mallory Company (1860)	15 October 1860	39.004215	-119.847695	15 October 1860	Carson Valley	Nevada	9	http://lds.org/churchhistory/library/pioneercompany/1,15797,4017-1-454,00.html
William K. McKissick Company (1861)	20 May 1861	42.95	-92.7297222222222	20 August 1861	Pleasant Grove	Iowa	35	http://lds.org/churchhistory/library/pioneercompany/1,15797,4017-1-463,00.html
David H. Cannon Company   (1861)	01 June 1861	41.360796	-95.951943	11 August 1861	Florence	Nebraska	225	http://lds.org/churchhistory/library/pioneercompany/1,15797,4017-1-85,00.html
Elias Asper Freight Train    (1861)	19 June 1861	41.360796	-95.951943	12 September 1861	Florence	Nebraska	200	http://lds.org/churchhistory/library/pioneercompany/1,15797,4017-1-55,00.html
Peter Ranck Company (1861)	19 June 1861	41.360796	-95.951943	08 September 1861	Florence	Nebraska	0	http://lds.org/churchhistory/library/pioneercompany/1,15797,4017-1-244,00.html
Homer Duncan Company (1861)	25 June 1861	41.360796	-95.951943	13 September 1861	Florence	Nebraska	264	http://lds.org/churchhistory/library/pioneercompany/1,15797,4017-1-43,00.html
Ira Eldredge Company   (1861)	01 July 1861	41.360796	-95.951943	13 September 1861	Florence	Nebraska	165	http://lds.org/churchhistory/library/pioneercompany/1,15797,4017-1-110,00.html
Joseph Horne Company (1861)	01 July 1861	41.360796	-95.951943	13 September 1861	Florence	Nebraska	159	http://lds.org/churchhistory/library/pioneercompany/1,15797,4017-1-158,00.html
Thomas Woolley Company (1861)	01 July 1861	41.360796	-95.951943	01 September 1861	Florence	Nebraska	150	http://lds.org/churchhistory/library/pioneercompany/1,15797,4017-1-328,00.html
John R. Murdock Company (1861)	04 July 1861	41.360796	-95.951943	12 September 1861	Florence	Nebraska	121	http://lds.org/churchhistory/library/pioneercompany/1,15797,4017-1-215,00.html
Milo Andrus Company   (1861)	07 July 1861	41.360796	-95.951943	12 September 1861	Florence	Nebraska	620	http://lds.org/churchhistory/library/pioneercompany/1,15797,4017-1-53,00.html
Joseph W. Young/Ansil P. Harmon/Heber P. Kimball Company    (1861)	11 July 1861	41.360796	-95.951943	23 September 1861	Florence	Nebraska	133	http://lds.org/churchhistory/library/pioneercompany/1,15797,4017-1-140,00.html
Samuel A. Woolley Company (1861)	12 July 1861	41.360796	-95.951943	22 September 1861	Florence	Nebraska	338	http://lds.org/churchhistory/library/pioneercompany/1,15797,4017-1-327,00.html
Joseph Porter Company (1861)	13 July 1861	41.360796	-95.951943	22 September 1861	Florence	Nebraska	1	http://lds.org/churchhistory/library/pioneercompany/1,15797,4017-1-237,00.html
Sixtus E. Johnson Company (1861)	14 July 1861	41.360796	-95.951943	27 September 1861	Florence	Nebraska	200	http://lds.org/churchhistory/library/pioneercompany/1,15797,4017-1-171,00.html
Wright-Godbe/George Stringham Freight Train (1861)	03 August 1861	41.360796	-95.951943	17 October 1861	Florence	Nebraska	13	http://lds.org/churchhistory/library/pioneercompany/1,15797,4017-1-387,00.html
Job Pingree Company (1861)	24 August 1861	41.360796	-95.951943	24 August 1861	Florence	Nebraska	0	http://lds.org/churchhistory/library/pioneercompany/1,15797,4017-1-236,00.html
Lewis Brunson  Company (1862)	14 June 1862	41.360796	-95.951943	29 August 1862	Florence	Nebraska	212	http://lds.org/churchhistory/library/pioneercompany/1,15797,4017-1-77,00.html
James Wareham Company (1862)	08 July 1862	41.360796	-95.951943	26 September 1862	Florence	Nebraska	250	http://lds.org/churchhistory/library/pioneercompany/1,15797,4017-1-23,00.html
Ola N. Liljenquist Company (1862)	14 July 1862	41.360796	-95.951943	23 September 1862	Florence	Nebraska	250	http://lds.org/churchhistory/library/pioneercompany/1,15797,4017-1-186,00.html
Christian A. Madsen Company (1862)	14 July 1862	41.360796	-95.951943	23 September 1862	Florence	Nebraska	264	http://lds.org/churchhistory/library/pioneercompany/1,15797,4017-1-190,00.html
Homer Duncan Company (1862)	22 July 1862	41.360796	-95.951943	21 September 1862	Florence	Nebraska	500	http://lds.org/churchhistory/library/pioneercompany/1,15797,4017-1-44,00.html
John R. Murdock Company (1862)	24 July 1862	41.360796	-95.951943	27 September 1862	Florence	Nebraska	700	http://lds.org/churchhistory/library/pioneercompany/1,15797,4017-1-216,00.html
Joseph Horne Company (1862)	27 July 1862	41.360796	-95.951943	01 October 1862	Florence	Nebraska	570	http://lds.org/churchhistory/library/pioneercompany/1,15797,4017-1-159,00.html
James S. Brown  Company (1862)	28 July 1862	41.360796	-95.951943	02 October 1862	Florence	Nebraska	200	http://lds.org/churchhistory/library/pioneercompany/1,15797,4017-1-74,00.html
Isaac A. Canfield Company (1862)	30 July 1862	41.360796	-95.951943	16 October 1862	Florence	Nebraska	120	http://lds.org/churchhistory/library/pioneercompany/1,15797,4017-1-83,00.html
Ansil P. Harmon Company    (1862)	01 August 1862	41.360796	-95.951943	05 October 1862	Florence	Nebraska	500	http://lds.org/churchhistory/library/pioneercompany/1,15797,4017-1-141,00.html
Abel Parker Company (1863)	01 August 1862	41.011175	-95.885605	23 June 1863	Plattsmouth	Nebraska	8	http://lds.org/churchhistory/library/pioneercompany/1,15797,4017-1-460,00.html
Henry W. Miller Company (1862)	05 August 1862	41.360796	-95.951943	17 October 1862	Florence	Nebraska	665	http://lds.org/churchhistory/library/pioneercompany/1,15797,4017-1-207,00.html
Horton D. Haight Company   (1862)	10 August 1862	41.360796	-95.951943	19 October 1862	Florence	Nebraska	650	http://lds.org/churchhistory/library/pioneercompany/1,15797,4017-1-134,00.html
William H. Dame Company   (1862)	14 August 1862	41.360796	-95.951943	29 October 1862	Florence	Nebraska	150	http://lds.org/churchhistory/library/pioneercompany/1,15797,4017-1-101,00.html
Alvus H. Patterson Company (1863)	29 June 1863	41.360796	-95.951943	04 September 1863	Florence	Nebraska	200	http://lds.org/churchhistory/library/pioneercompany/1,15797,4017-1-231,00.html
John R. Young  Company (1863)	30 June 1863	41.360796	-95.951943	12 September 1863	Florence	Nebraska	133	http://lds.org/churchhistory/library/pioneercompany/1,15797,4017-1-331,00.html
John F. Sanders Company (1863)	06 July 1863	41.360796	-95.951943	05 September 1863	Florence	Nebraska	102	http://lds.org/churchhistory/library/pioneercompany/1,15797,4017-1-260,00.html
William B. Preston Company (1863)	09 July 1863	41.360796	-95.951943	10 September 1863	Florence	Nebraska	300	http://lds.org/churchhistory/library/pioneercompany/1,15797,4017-1-241,00.html
Peter Nebeker Company (1863)	25 July 1863	41.360796	-95.951943	25 September 1863	Florence	Nebraska	500	http://lds.org/churchhistory/library/pioneercompany/1,15797,4017-1-221,00.html
Daniel D. McArthur Company (1863)	06 August 1863	41.360796	-95.951943	03 October 1863	Florence	Nebraska	500	http://lds.org/churchhistory/library/pioneercompany/1,15797,4017-1-196,00.html
Horton D. Haight Company   (1863)	08 August 1863	41.360796	-95.951943	04 October 1863	Florence	Nebraska	200	http://lds.org/churchhistory/library/pioneercompany/1,15797,4017-1-135,00.html
Rosel Hyde Company (1863)	11 August 1863	41.360796	-95.951943	13 October 1863	Florence	Nebraska	300	http://lds.org/churchhistory/library/pioneercompany/1,15797,4017-1-165,00.html
Samuel D. White Company (1863)	15 August 1863	41.360796	-95.951943	15 October 1863	Florence	Nebraska	300	http://lds.org/churchhistory/library/pioneercompany/1,15797,4017-1-316,00.html
John R. Murdock Company (1863)	29 August 1863	41.360796	-95.951943	29 August 1863	Florence	Nebraska	375	http://lds.org/churchhistory/library/pioneercompany/1,15797,4017-1-217,00.html
Thomas E. Ricks Company (1863)	04 October 1863	41.360796	-95.951943	04 October 1863	Florence	Nebraska	400	http://lds.org/churchhistory/library/pioneercompany/1,15797,4017-1-253,00.html
John W. Woolley Company (1863)	04 October 1863	41.360796	-95.951943	04 October 1863	Florence	Nebraska	200	http://lds.org/churchhistory/library/pioneercompany/1,15797,4017-1-326,00.html
John D. Chase  Company (1864)	26 June 1864	40.7321890443563	-95.9211460500956	20 September 1864	Wyoming	Nebraska	85	http://lds.org/churchhistory/library/pioneercompany/1,15797,4017-1-86,00.html
John R. Murdock Company (1864)	29 June 1864	40.7321890443563	-95.9211460500956	26 August 1864	Wyoming	Nebraska	78	http://lds.org/churchhistory/library/pioneercompany/1,15797,4017-1-218,00.html
William B. Preston Company (1864)	04 July 1864	40.7321890443563	-95.9211460500956	15 September 1864	Wyoming	Nebraska	400	http://lds.org/churchhistory/library/pioneercompany/1,15797,4017-1-242,00.html
Joseph S. Rawlins Company    (1864)	15 July 1864	40.7321890443563	-95.9211460500956	19 September 1864	Wyoming	Nebraska	400	http://lds.org/churchhistory/library/pioneercompany/1,15797,4017-1-245,00.html
William S. Warren Company  (1864)	21 July 1864	40.7321890443563	-95.9211460500956	04 October 1864	Wyoming	Nebraska	329	http://lds.org/churchhistory/library/pioneercompany/1,15797,4017-1-314,00.html
Isaac A. Canfield Company  (1864)	27 July 1864	40.7321890443563	-95.9211460500956	05 October 1864	Wyoming	Nebraska	211	http://lds.org/churchhistory/library/pioneercompany/1,15797,4017-1-84,00.html
William Hyde Company (1864)	09 August 1864	40.7321890443563	-95.9211460500956	26 October 1864	Wyoming	Nebraska	350	http://lds.org/churchhistory/library/pioneercompany/1,15797,4017-1-166,00.html
Warren S. Snow Company (1864)	13 August 1864	40.7321890443563	-95.9211460500956	02 November 1864	Wyoming	Nebraska	400	http://lds.org/churchhistory/library/pioneercompany/1,15797,4017-1-281,00.html
Joseph W. Young Company (1864)	21 August 1864	40.6771447509527	-95.8589000254869	29 September 1864	Nebraska City	Nebraska	13	http://lds.org/churchhistory/library/pioneercompany/1,15797,4017-1-480,00.html
John Smith  Company (1864)	25 September 1864	40.7321890443563	-95.9211460500956	25 September 1864	Wyoming	Nebraska	150	http://lds.org/churchhistory/library/pioneercompany/1,15797,4017-1-273,00.html
William S. Godbe Company (1865)	19 June 1865	40.7321890443563	-95.9211460500956	05 July 1865	Wyoming	Nebraska	3	http://lds.org/churchhistory/library/pioneercompany/1,15797,4017-1-424,00.html
Miner G. Atwood Company   (1865)	31 July 1865	40.7321890443563	-95.9211460500956	08 November 1865	Wyoming	Nebraska	245	http://lds.org/churchhistory/library/pioneercompany/1,15797,4017-1-57,00.html
Henson Walker Company (1865)	12 August 1865	40.7321890443563	-95.9211460500956	09 November 1865	Wyoming	Nebraska	200	http://lds.org/churchhistory/library/pioneercompany/1,15797,4017-1-308,00.html
William S. S. Willes Company (1865)	11 November 1865	40.7321890443563	-95.9211460500956	11 November 1865	Wyoming	Nebraska	200	http://lds.org/churchhistory/library/pioneercompany/1,15797,4017-1-320,00.html
Thomas E. Ricks Company (1866)	06 July 1866	40.7321890443563	-95.9211460500956	29 August 1866	Wyoming	Nebraska	251	http://lds.org/churchhistory/library/pioneercompany/1,15797,4017-1-254,00.html
Samuel D. White Company (1866)	10 July 1866	40.7321890443563	-95.9211460500956	05 September 1866	Wyoming	Nebraska	230	http://lds.org/churchhistory/library/pioneercompany/1,15797,4017-1-317,00.html
William Henry Chipman Company  (1866)	11 July 1866	40.7321890443563	-95.9211460500956	15 September 1866	Wyoming	Nebraska	375	http://lds.org/churchhistory/library/pioneercompany/1,15797,4017-1-87,00.html
John D. Holladay Company (1866)	16 July 1866	40.7321890443563	-95.9211460500956	25 September 1866	Wyoming	Nebraska	350	http://lds.org/churchhistory/library/pioneercompany/1,15797,4017-1-21,00.html
Daniel Thompson Company  (1866)	24 July 1866	40.7321890443563	-95.9211460500956	29 September 1866	Wyoming	Nebraska	500	http://lds.org/churchhistory/library/pioneercompany/1,15797,4017-1-304,00.html
Joseph S. Rawlins Company    (1866)	02 August 1866	40.7321890443563	-95.9211460500956	01 October 1866	Wyoming	Nebraska	400	http://lds.org/churchhistory/library/pioneercompany/1,15797,4017-1-246,00.html
Horton D. Haight Company   (1866)	04 August 1866	40.7321890443563	-95.9211460500956	15 October 1866	Wyoming	Nebraska	26	http://lds.org/churchhistory/library/pioneercompany/1,15797,4017-1-136,00.html
Peter Nebeker Company (1866)	07 August 1866	40.7321890443563	-95.9211460500956	29 September 1866	Wyoming	Nebraska	400	http://lds.org/churchhistory/library/pioneercompany/1,15797,4017-1-222,00.html
Andrew H. Scott Company (1866)	08 August 1866	40.7321890443563	-95.9211460500956	08 October 1866	Wyoming	Nebraska	300	http://lds.org/churchhistory/library/pioneercompany/1,15797,4017-1-262,00.html
Abner Lowry Company (1866)	07 October 1866	40.7321890443563	-95.9211460500956	07 October 1866	Wyoming	Nebraska	300	http://lds.org/churchhistory/library/pioneercompany/1,15797,4017-1-22,00.html
Leonard G. Rice Company (1867)	15 August 1867	41.136325	-100.76333	05 October 1867	North Platte	Nebraska	500	http://lds.org/churchhistory/library/pioneercompany/1,15797,4017-1-249,00.html
Chester Loveland Company (1868)	25 July 1868	41.310807	-105.590325	20 August 1868	Laramie	Wyoming	400	http://lds.org/churchhistory/library/pioneercompany/1,15797,4017-1-189,00.html
Joseph S. Rawlins Company    (1868)	25 July 1868	41.310807	-105.590325	20 August 1868	Laramie	Wyoming	34	http://lds.org/churchhistory/library/pioneercompany/1,15797,4017-1-247,00.html
John R. Murdock Company (1868)	27 July 1868	41.310807	-105.590325	19 August 1868	Laramie	Wyoming	600	http://lds.org/churchhistory/library/pioneercompany/1,15797,4017-1-219,00.html
Horton D. Haight Company   (1868)	28 July 1868	41.310807	-105.590325	24 August 1868	Laramie	Wyoming	275	http://lds.org/churchhistory/library/pioneercompany/1,15797,4017-1-138,00.html
William S. Seeley Company (1868)	01 August 1868	41.310807	-105.590325	29 August 1868	Laramie	Wyoming	272	http://lds.org/churchhistory/library/pioneercompany/1,15797,4017-1-264,00.html
Simpson M. Molen Company (1868)	12 August 1868	41.194673	-76.383681	02 September 1868	Benton	Wyoming	300	http://lds.org/churchhistory/library/pioneercompany/1,15797,4017-1-210,00.html
Daniel D. McArthur Company (1868)	14 August 1868	41.194673	-76.383681	02 September 1868	Benton	Wyoming	411	http://lds.org/churchhistory/library/pioneercompany/1,15797,4017-1-197,00.html
John Gillespie Company   (1868)	23 August 1868	41.194673	-76.383681	15 September 1868	Benton	Wyoming	500	http://lds.org/churchhistory/library/pioneercompany/1,15797,4017-1-126,00.html
John G. Holman Company (1868)	01 September 1868	41.194673	-76.383681	25 September 1868	Benton	Wyoming	650	http://lds.org/churchhistory/library/pioneercompany/1,15797,4017-1-152,00.html
Edward T. Mumford Company (1868)	01 September 1868	41.194673	-76.383681	24 September 1868	Benton	Wyoming	250	http://lds.org/churchhistory/library/pioneercompany/1,15797,4017-1-214,00.html
